GLOBALSTAR M024         
1 25883U 99043A   25031.77347501 -.00000073  00000+0 -30239-3 0  9997
2 25883  52.0057 328.4218 0000994 231.8110 139.2669 11.10166313 99718
GLOBALSTAR M054         
1 25885U 99043C   25031.76286587 -.00000077  00000+0 -15481-3 0  9990
2 25885  52.0111 192.7540 0004721 308.9502  63.9881 11.39216295103502
GLOBALSTAR M053         
1 25886U 99043D   25031.76875545 -.00000056  00000+0  36669-3 0  9996
2 25886  51.9975 132.2652 0003676 193.7697 337.7130 11.27662618104056
GLOBALSTAR M058         
1 25907U 99049A   25031.93044105  .00000049  00000+0  17973-2 0  9992
2 25907  51.9937 113.0158 0001694  38.4138 321.6817 11.93196349525270
GLOBALSTAR M050         
1 25908U 99049B   25031.53197000 -.00000135  00000+0 -52673-3 0  9997
2 25908  51.9982 131.9641 0010041 119.8238 253.9253 12.07448497131687
GLOBALSTAR M033         
1 25909U 99049C   25031.97051922 -.00000170  00000+0 -75487-3 0  9995
2 25909  51.9941  12.0005 0013180 343.7302  16.3121 12.20290357519111
GLOBALSTAR M055         
1 25910U 99049D   25031.67171925 -.00000069  00000+0  21466-3 0  9994
2 25910  52.0037  30.2353 0006990 206.8225 153.2266 12.29419925151490
